IRIDIUM 126             
1 42809U 17039G   24255.53406031  .00000052  00000+0  11607-4 0  9998
2 42809  86.3908 262.5878 0002118  88.1036 272.0403 14.34216966377709
IRIDIUM 124             
1 42810U 17039H   24255.38487079  .00001891  00000+0  55611-3 0  9998
2 42810  86.4548 199.4229 0002043  89.6413 270.5022 14.43290146382250
IRIDIUM 128             
1 42811U 17039J   24255.52479809  .00001010  00000+0  35369-3 0  9998
2 42811  86.3933 294.1426 0001959  94.3823 265.7597 14.34219927377720
IRIDIUM 121             
1 42812U 17039K   24255.55308788  .00000010  00000+0 -33686-5 0  9991
2 42812  86.3908 262.6031 0002067  91.1324 269.0108 14.34217102377691
IRIDIUM 133             
1 42955U 17061A   24254.64952201  .00000012  00000+0 -27781-5 0  9999
2 42955  86.3934 294.6108 0002259  91.2828 268.8627 14.34216652362394
IRIDIUM 100             
1 42956U 17061B   24254.57341094  .00000308  00000+0  10281-3 0  9996
2 42956  86.3934 294.5763 0002054  94.5140 265.6291 14.34218193362380
IRIDIUM 122             
1 42957U 17061C   24254.61146617  .00000107  00000+0  31088-4 0  9992
2 42957  86.3934 294.5589 0001942  90.3830 269.7589 14.34217847362393
IRIDIUM 129             
1 42958U 17061D   24255.54382759  .00000135  00000+0  41148-4 0  9994
2 42958  86.3933 294.2290 0002234  86.0260 274.1191 14.34218141362547
